NORAD_CAT_ID,OBJECT_NAME,OBJECT_TYPE,EPOCH,MEAN_MOTION,ECCENTRICITY,INCLINATION,RA_OF_ASC_NODE,ARG_OF_PERICENTER,MEAN_ANOMALY,BSTAR,MEAN_MOTION_DOT,MEAN_MOTION_DDOT,TLE_LINE0,TLE_LINE1,TLE_LINE2,SEMIMAJOR_AXIS,PERIOD,APOGEE,PERIGEE,DECAYED
51971.0,STARLINK-3669,PAYLOAD,2023-12-02 18:54:59,15.08039711,0.0001411,53.055,143.4745,83.1599,276.9551,0.00021001,2.986e-05,0.0,0 STARLINK-3669,1 51971U 22025R   23336.78818685  .00002986  00000-0  21001-3 0  9994,2 51971  53.0550 143.4745 0001411  83.1599 276.9551 15.08039711 96198,6920.328,95.488,543.169,541.216,0.0
51971.0,STARLINK-3669,PAYLOAD,2023-12-03 10:49:21,15.08027826,0.0001477,53.056,140.4936,98.4107,261.705,-9.2608e-05,-1.727e-05,0.0,0 STARLINK-3669,1 51971U 22025R   23337.45094271 -.00001727  00000-0 -92608-4 0  9992,2 51971  53.0560 140.4936 0001477  98.4107 261.7050 15.08027826 97409,6920.364,95.489,543.251,541.207,0.0
51971.0,STARLINK-3669,PAYLOAD,2023-12-04 10:40:54,15.08023534,0.0001426,53.0555,136.0162,99.2891,260.826,-6.0648e-05,-1.23e-05,0.0,0 STARLINK-3669,1 51971U 22025R   23338.44507566 -.00001230  00000-0 -60648-4 0  9996,2 51971  53.0555 136.0162 0001426  99.2891 260.8260 15.08023534 96446,6920.377,95.489,543.229,541.255,0.0
51971.0,STARLINK-3669,PAYLOAD,2023-12-05 20:05:02,15.08036559,0.000141,53.0554,129.7533,87.5734,272.5417,0.00025114,3.627e-05,0.0,0 STARLINK-3669,1 51971U 22025R   23339.83683917  .00003627  00000-0  25114-3 0  9993,2 51971  53.0554 129.7533 0001410  87.5734 272.5417 15.08036559 96653,6920.337,95.488,543.178,541.227,0.0
51971.0,STARLINK-3669,PAYLOAD,2023-12-06 10:23:59,15.08027545,0.0001576,53.056,127.0694,81.1652,278.9516,1.1731e-05,-1.03e-06,0.0,0 STARLINK-3669,1 51971U 22025R   23340.43332348 -.00000103  00000-0  11731-4 0  9998,2 51971  53.0560 127.0694 0001576  81.1652 278.9516 15.08027545 97859,6920.365,95.489,543.321,541.139,0.0
51971.0,STARLINK-3669,PAYLOAD,2023-12-06 13:34:51,15.08028797,0.0001502,53.0547,126.472,87.3126,272.8036,4.3731e-05,3.95e-06,0.0,0 STARLINK-3669,1 51971U 22025R   23340.56587224  .00000395  00000-0  43731-4 0  9994,2 51971  53.0547 126.4720 0001502  87.3126 272.8036 15.08028797 96769,6920.361,95.489,543.265,541.187,0.0
51971.0,STARLINK-3669,PAYLOAD,2023-12-06 19:56:33,15.08068124,0.0001785,53.054,125.2792,118.3089,241.8081,-0.0011886,-0.00018762,0.0,0 STARLINK-3669,1 51971U 22025R   23340.83094378 -.00018762  00000-0 -11886-2 0  9990,2 51971  53.0540 125.2792 0001785 118.3089 241.8081 15.08068124 97916,6920.241,95.486,543.341,540.87,0.0
51971.0,STARLINK-3669,PAYLOAD,2023-12-07 10:15:31,15.08023065,0.0001498,53.0554,122.5946,104.3831,255.7325,0.0001077,1.391e-05,0.0,0 STARLINK-3669,1 51971U 22025R   23341.42744718  .00001391  00000-0  10770-3 0  9996,2 51971  53.0554 122.5946 0001498 104.3831 255.7325 15.08023065 98004,6920.379,95.489,543.28,541.207,0.0
51971.0,STARLINK-3669,PAYLOAD,2023-12-07 13:26:23,15.0802493,0.0001368,53.0559,121.9974,95.2056,264.9089,0.00012111,1.6e-05,0.0,0 STARLINK-3669,1 51971U 22025R   23341.55999651  .00001600  00000-0  12111-3 0  9992,2 51971  53.0559 121.9974 0001368  95.2056 264.9089 15.08024930 96915,6920.373,95.489,543.185,541.291,0.0
51971.0,STARLINK-3669,PAYLOAD,2023-12-08 13:17:55,15.08029823,0.0001515,53.056,117.5244,109.4721,250.6433,0.00010143,1.293e-05,0.0,0 STARLINK-3669,1 51971U 22025R   23342.55412026  .00001293  00000-0  10143-3 0  9990,2 51971  53.0560 117.5244 0001515 109.4721 250.6433 15.08029823 97067,6920.358,95.489,543.271,541.174,0.0
51971.0,STARLINK-3669,PAYLOAD,2023-12-09 13:09:28,15.08031142,0.0001534,53.0562,113.0517,116.1257,243.9891,5.5728e-05,5.82e-06,0.0,0 STARLINK-3669,1 51971U 22025R   23343.54824570  .00000582  00000-0  55728-4 0  9990,2 51971  53.0562 113.0517 0001534 116.1257 243.9891 15.08031142 97210,6920.354,95.489,543.28,541.157,0.0
51971.0,STARLINK-3669,PAYLOAD,2023-12-09 17:55:46,15.080326,0.0001225,53.0546,112.1558,95.9061,264.2068,7.2919e-05,8.5e-06,0.0,0 STARLINK-3669,1 51971U 22025R   23343.74706967  .00000850  00000-0  72919-4 0  9990,2 51971  53.0546 112.1558 0001225  95.9061 264.2068 15.08032600 98359,6920.349,95.489,543.062,541.367,0.0
51971.0,STARLINK-3669,PAYLOAD,2023-12-10 14:36:26,15.08031872,0.0001178,53.0548,108.279,90.3994,269.7131,6.9914e-05,8.03e-06,0.0,0 STARLINK-3669,1 51971U 22025R   23344.60864501  .00000803  00000-0  69914-4 0  9994,2 51971  53.0548 108.2790 0001178  90.3994 269.7131 15.08031872 97378,6920.352,95.489,543.032,541.401,0.0
51971.0,STARLINK-3669,PAYLOAD,2023-12-10 16:11:52,15.08034135,0.0001252,53.0558,107.9812,84.777,275.3362,8.5926e-05,1.052e-05,0.0,0 STARLINK-3669,1 51971U 22025R   23344.67491855  .00001052  00000-0  85926-4 0  9997,2 51971  53.0558 107.9812 0001252  84.7770 275.3362 15.08034135 97387,6920.345,95.489,543.076,541.343,0.0
51971.0,STARLINK-3669,PAYLOAD,2023-12-11 14:27:59,15.08032163,0.0001509,53.0564,103.8068,74.055,286.0606,6.2111e-05,6.81e-06,0.0,0 STARLINK-3669,1 51971U 22025R   23345.60277067  .00000681  00000-0  62111-4 0  9996,2 51971  53.0564 103.8068 0001509  74.0550 286.0606 15.08032163 97520,6920.351,95.489,543.26,541.171,0.0
51971.0,STARLINK-3669,PAYLOAD,2023-12-12 14:19:31,15.08031104,0.0001387,53.0562,99.332,81.681,278.4337,3.5277e-05,2.63e-06,0.0,0 STARLINK-3669,1 51971U 22025R   23346.59689565  .00000263  00000-0  35277-4 0  9994,2 51971  53.0562  99.3320 0001387  81.6810 278.4337 15.08031104 97671,6920.354,95.489,543.179,541.259,0.0
51971.0,STARLINK-3669,PAYLOAD,2023-12-13 11:00:11,15.08033113,0.0001423,53.0568,95.4592,103.5166,256.5982,7.6579e-05,9.07e-06,0.0,0 STARLINK-3669,1 51971U 22025R   23347.45846614  .00000907  00000-0  76579-4 0  9995,2 51971  53.0568  95.4592 0001423 103.5166 256.5982 15.08033113 98917,6920.348,95.489,543.198,541.228,0.0
51971.0,STARLINK-3669,PAYLOAD,2023-12-13 12:35:37,15.0803419,0.0001413,53.0568,95.161,100.2256,259.8893,8.5004e-05,1.038e-05,0.0,0 STARLINK-3669,1 51971U 22025R   23347.52474035  .00001038  00000-0  85004-4 0  9996,2 51971  53.0568  95.1610 0001413 100.2256 259.8893 15.08034190 97819,6920.345,95.489,543.187,541.232,0.0
51971.0,STARLINK-3669,PAYLOAD,2023-12-14 10:51:44,15.08029817,0.0001454,53.0577,90.9837,108.4357,251.6791,3.3443e-05,2.35e-06,0.0,0 STARLINK-3669,1 51971U 22025R   23348.45259388  .00000235  00000-0  33443-4 0  9999,2 51971  53.0577  90.9837 0001454 108.4357 251.6791 15.08029817 99066,6920.358,95.489,543.229,541.217,0.0
51971.0,STARLINK-3669,PAYLOAD,2023-12-14 12:27:10,15.08031095,0.0001481,53.0579,90.6883,108.2665,251.8486,4.3816e-05,3.96e-06,0.0,0 STARLINK-3669,1 51971U 22025R   23348.51886810  .00000396  00000-0  43816-4 0  9995,2 51971  53.0579  90.6883 0001481 108.2665 251.8486 15.08031095 97967,6920.354,95.489,543.244,541.194,0.0
51971.0,STARLINK-3669,PAYLOAD,2023-12-15 12:18:43,15.08021027,0.00015,53.0573,86.2043,81.074,279.042,-2.1788e-05,-6.25e-06,0.0,0 STARLINK-3669,1 51971U 22025R   23349.51300467 -.00000625  00000-0 -21788-4 0  9996,2 51971  53.0573  86.2043 0001500  81.0740 279.0420 15.08021027 99229,6920.385,95.489,543.288,541.212,0.0
51971.0,STARLINK-3669,PAYLOAD,2023-12-15 13:54:09,15.08020499,0.0001477,53.0568,85.9065,79.7182,280.3974,-4.3848e-05,-9.68e-06,0.0,0 STARLINK-3669,1 51971U 22025R   23349.57928095 -.00000968  00000-0 -43848-4 0  9996,2 51971  53.0568  85.9065 0001477  79.7182 280.3974 15.08020499 98129,6920.386,95.489,543.274,541.229,0.0
51971.0,STARLINK-3669,PAYLOAD,2023-12-16 12:10:15,15.08028903,0.0001461,53.056,81.7325,97.4773,262.6383,0.00026905,3.905e-05,0.0,0 STARLINK-3669,1 51971U 22025R   23350.50711894  .00003905  00000-0  26905-3 0  9994,2 51971  53.0560  81.7325 0001461  97.4773 262.6383 15.08028903 99373,6920.361,95.489,543.237,541.215,0.0
51971.0,STARLINK-3669,PAYLOAD,2023-12-16 13:45:41,15.08015658,0.0001571,53.0564,81.4342,92.4761,267.6408,0.00055011,8.285e-05,0.0,0 STARLINK-3669,1 51971U 22025R   23350.57339688  .00008285  00000-0  55011-3 0  9994,2 51971  53.0564  81.4342 0001571  92.4761 267.6408 15.08015658 98271,6920.401,95.49,543.353,541.179,0.0
51971.0,STARLINK-3669,PAYLOAD,2023-12-17 13:37:13,15.08036775,0.0001662,53.0567,76.9574,82.7191,277.3988,0.00026261,3.805e-05,0.0,0 STARLINK-3669,1 51971U 22025R   23351.56752277  .00003805  00000-0  26261-3 0  9995,2 51971  53.0567  76.9574 0001662  82.7191 277.3988 15.08036775 98421,6920.337,95.488,543.352,541.051,0.0
51971.0,STARLINK-3669,PAYLOAD,2023-12-18 11:53:19,15.08045005,0.0001601,53.056,72.784,83.9678,276.1495,0.00011469,1.501e-05,0.0,0 STARLINK-3669,1 51971U 22025R   23352.49536488  .00001501  00000-0  11469-3 0  9997,2 51971  53.0560  72.7840 0001601  83.9678 276.1495 15.08045005 99674,6920.311,95.488,543.284,541.068,0.0
51971.0,STARLINK-3669,PAYLOAD,2023-12-19 11:44:52,15.08032282,0.0001412,53.0548,68.3175,84.3264,275.7887,0.00017977,2.514e-05,0.0,0 STARLINK-3669,1 51971U 22025R   23353.48949248  .00002514  00000-0  17977-3 0  9994,2 51971  53.0548  68.3175 0001412  84.3264 275.7887 15.08032282 99828,6920.35,95.489,543.193,541.238,0.0
51971.0,STARLINK-3669,PAYLOAD,2023-12-20 10:00:59,15.08020141,0.0001527,53.0559,64.1353,94.6519,265.4645,-4.772e-05,-1.029e-05,0.0,0 STARLINK-3669,1 51971U 22025R   23354.41735114 -.00001029  00000-0 -47720-4 0  9995,2 51971  53.0559  64.1353 0001527  94.6519 265.4645 15.08020141 99960,6920.388,95.489,543.309,541.196,0.0
51971.0,STARLINK-3669,PAYLOAD,2023-12-21 11:27:56,15.08047128,0.0001362,53.0563,59.3616,98.7898,261.3246,0.00033304,4.905e-05,0.0,0 STARLINK-3669,1 51971U 22025R   23355.47773859  .00004905  00000-0  33304-3 0  9996,2 51971  53.0563  59.3616 0001362  98.7898 261.3246 15.08047128100122,6920.305,95.488,543.112,541.227,0.0
51971.0,STARLINK-3669,PAYLOAD,2023-12-22 09:44:03,15.0803103,0.0001476,53.0568,55.1867,81.4736,278.6421,0.00012913,1.725e-05,0.0,0 STARLINK-3669,1 51971U 22025R   23356.40560009  .00001725  00000-0  12913-3 0  9991,2 51971  53.0568  55.1867 0001476  81.4736 278.6421 15.08031030100261,6920.354,95.489,543.241,541.198,0.0
